{
  "norad_id": 68685,
  "name": "STARLINK-36278",
  "history": [
    {
      "epoch": "2026-04-22T14:13:53.001984Z",
      "apogee_km": 339.77792580738424,
      "perigee_km": 337.24521196502883,
      "latitude_deg": -6.101449129615044e-05,
      "longitude_deg": -80.44047069101684,
      "height_km": 340.4235462598116,
      "semi_major_axis_km": 6716.648568886207,
      "eccentricity": 0.00018854,
      "inclination_deg": 97.2836,
      "raan_deg": 343.6827,
      "arg_perigee_deg": 353.8212,
      "mean_anomaly_deg": 6.303,
      "mean_motion_rev_day": 15.7715299
    }
  ]
}