STARLINK-36278          
1 68685U 26077Z   26112.59297456 -.00767652  00000+0 -51583-2 0  9992
2 68685  97.2836 343.6827 0001885 353.8212   6.3030 15.77152990  1828
